MEAN_MOTION;ECCENTRICITY;INCLINATION;RA_OF_ASC_NODE;ARG_OF_PERICENTER;MEAN_ANOMALY;BSTAR;MEAN_MOTION_DOT;MEAN_MOTION_DDOT;TYPE
1.87563;0.0012488;55.1055;257.5027;353.2531;6.7305;0;6.4E-7;0;Navigation
1.87562996;0.0012484;55.1053;257.4843;353.2421;6.7403;0;5.9E-7;0;Navigation
1.87562992;0.0012478;55.105;257.4659;353.2445;6.736;0;5.3E-7;0;Navigation
1.87562989;0.0012474;55.1044;257.429;353.2314;6.7432;0;3.8E-7;0;Navigation
1.8756299;0.0012477;55.1042;257.4106;353.2366;6.7343;0;3.0E-7;0;Navigation
1.87562991;0.0012475;55.1039;257.3922;353.2303;6.7365;0;2.2E-7;0;Navigation
1.87562991;0.0012475;55.1039;257.3922;353.2303;6.7365;0;2.2E-7;0;Navigation
1.87563007;0.0012471;55.1032;257.337;353.2038;6.751;0;3.0E-8;0;Navigation
1.87563017;0.0012468;55.103;257.3186;353.2054;6.7461;0;-1.0E-8;0;Navigation
1.87563017;0.0012468;55.103;257.3186;353.2054;6.7461;0;-1.0E-8;0;Navigation
1.87563035;0.0012463;55.1025;257.2817;353.2203;6.7267;0;-3.0E-8;0;Navigation
1.87563044;0.0012457;55.1022;257.2633;353.2196;6.7262;0;-2.0E-8;0;Navigation
1.87563067;0.0012448;55.1018;257.2265;353.2106;6.735;0;4.0E-8;0;Navigation
1.87563067;0.0012448;55.1018;257.2265;353.2106;6.735;0;4.0E-8;0;Navigation
1.87563067;0.0012448;55.1018;257.2265;353.2106;6.735;0;4.0E-8;0;Navigation
1.87563096;0.0012439;55.101;257.1713;353.2004;6.7488;0;1.6E-7;0;Navigation
1.87563096;0.0012439;55.101;257.1713;353.2004;6.7488;0;1.6E-7;0;Navigation
1.87563113;0.0012427;55.1005;257.1345;353.172;6.7807;0;2.2E-7;0;Navigation
1.87563113;0.0012427;55.1005;257.1345;353.172;6.7807;0;2.2E-7;0;Navigation
1.87563138;0.0012412;55.1;257.0977;353.1262;6.8294;0;2.5E-7;0;Navigation
1.87563156;0.0012398;55.0995;257.061;353.1024;6.855;0;2.2E-7;0;Navigation
1.8756315;0.0012404;55.0994;257.061;353.1053;6.8522;0;2.2E-7;0;Navigation
1.87563166;0.0012383;55.0989;257.0242;353.09;6.8675;0;1.6E-7;0;Navigation
1.87563169;0.0012378;55.0987;257.0058;353.0885;6.8684;0;1.2E-7;0;Navigation
1.87563169;0.0012371;55.0984;256.9874;353.0903;6.8656;0;8.0E-8;0;Navigation
1.87563163;0.0012351;55.0979;256.9507;353.0879;6.8649;0;0;0;Navigation
1.87563162;0.0012344;55.0977;256.9323;353.0899;6.861;0;-3.0E-8;0;Navigation
1.87563159;0.0012336;55.0974;256.914;353.0763;6.8726;0;-5.0E-8;0;Navigation
1.87563159;0.0012336;55.0974;256.914;353.0763;6.8726;0;-5.0E-8;0;Navigation
1.87563159;0.0012336;55.0974;256.914;353.0763;6.8726;0;-5.0E-8;0;Navigation
1.87563139;0.0012309;55.0967;256.8589;353.0233;6.9191;0;-7.0E-8;0;Navigation
1.87563124;0.0012295;55.0959;256.8038;352.9728;6.9653;0;-1.0E-8;0;Navigation
1.87563124;0.0012295;55.0959;256.8038;352.9728;6.9653;0;-1.0E-8;0;Navigation
1.87563095;0.0012271;55.0951;256.7487;352.9001;7.0375;0;1.1E-7;0;Navigation
1.87563095;0.0012271;55.0951;256.7487;352.9001;7.0375;0;1.1E-7;0;Navigation
1.87563076;0.0012262;55.0946;256.712;352.904;7.0358;0;2.0E-7;0;Navigation
1.87563065;0.001226;55.0943;256.6936;352.9043;7.0372;0;2.5E-7;0;Navigation
1.87563048;0.0012257;55.0941;256.6753;352.9108;7.0329;0;2.8E-7;0;Navigation
1.87563048;0.0012257;55.0941;256.6753;352.9108;7.0329;0;2.8E-7;0;Navigation
1.87563017;0.0012245;55.0932;256.6202;352.8785;7.0713;0;3.4E-7;0;Navigation
1.8756301;0.0012237;55.093;256.6018;352.8479;7.1035;0;3.4E-7;0;Navigation
1.87562999;0.001223;55.0924;256.565;352.8143;7.1389;0;2.8E-7;0;Navigation
1.87562988;0.001222;55.0918;256.5283;352.7404;7.2117;0;1.8E-7;0;Navigation
1.87562988;0.0012222;55.0915;256.5099;352.7331;7.2174;0;1.1E-7;0;Navigation
1.87562986;0.0012223;55.0912;256.4915;352.7465;7.2018;0;3.0E-8;0;Navigation
1.87562986;0.0012223;55.0912;256.4915;352.7465;7.2018;0;3.0E-8;0;Navigation
1.87562989;0.0012222;55.0907;256.4548;352.6761;7.2663;0;-1.3E-7;0;Navigation
1.87562989;0.0012218;55.0904;256.4364;352.6811;7.2582;0;-2.0E-7;0;Navigation
1.87563002;0.0012203;55.0896;256.3813;352.5982;7.3326;0;-3.6E-7;0;Navigation
1.87563017;0.0012205;55.089;256.3445;352.6011;7.3267;0;-3.9E-7;0;Navigation
1.87563037;0.0012206;55.0887;256.3262;352.6297;7.2979;0;-3.8E-7;0;Navigation
1.87563052;0.00122;55.0885;256.3078;352.5939;7.334;0;-3.5E-7;0;Navigation
1.87563063;0.0012184;55.0879;256.271;352.5469;7.3837;0;-2.8E-7;0;Navigation
1.87563074;0.0012177;55.0876;256.2526;352.5243;7.4086;0;-2.4E-7;0;Navigation
1.87563086;0.0012172;55.0874;256.2343;352.4985;7.4369;0;-2.0E-7;0;Navigation
1.87563101;0.0012168;55.0871;256.2159;352.4575;7.4805;0;-1.6E-7;0;Navigation
1.87563111;0.0012163;55.0868;256.1975;352.4262;7.5146;0;-1.3E-7;0;Navigation
1.87563111;0.0012163;55.0868;256.1975;352.4262;7.5146;0;-1.3E-7;0;Navigation
1.87563142;0.0012149;55.086;256.1425;352.3448;7.6031;0;-1.1E-7;0;Navigation
1.87563142;0.0012149;55.086;256.1425;352.3448;7.6031;0;-1.1E-7;0;Navigation
1.87563142;0.0012149;55.086;256.1425;352.3448;7.6031;0;-1.1E-7;0;Navigation
1.87563175;0.0012137;55.0845;256.0507;352.3092;7.6433;0;-2.5E-7;0;Navigation
1.87563175;0.0012137;55.0845;256.0507;352.3092;7.6433;0;-2.5E-7;0;Navigation
1.87563178;0.0012132;55.0842;256.0323;352.2998;7.6523;0;-2.9E-7;0;Navigation
1.87563181;0.0012129;55.0842;256.0324;352.3024;7.6497;0;-2.9E-7;0;Navigation
1.87563189;0.0012122;55.0836;255.9956;352.3984;7.5524;0;-3.6E-7;0;Navigation
1.87563182;0.0012101;55.0828;255.9406;352.3289;7.6186;0;-4.0E-7;0;Navigation
1.87563182;0.0012101;55.0828;255.9406;352.3289;7.6186;0;-4.0E-7;0;Navigation
1.87563168;0.0012076;55.0822;255.9039;352.194;7.7516;0;-3.8E-7;0;Navigation
1.87563168;0.0012076;55.0822;255.9039;352.194;7.7516;0;-3.8E-7;0;Navigation
1.87563135;0.001204;55.0814;255.8489;351.927;8.018;0;-2.8E-7;0;Navigation
1.87563117;0.0012035;55.0808;255.8122;351.8817;8.0654;0;-1.9E-7;0;Navigation
1.87563117;0.0012035;55.0808;255.8122;351.8817;8.0654;0;-1.9E-7;0;Navigation
1.87563115;0.0012036;55.0805;255.7938;351.9096;8.0395;0;-1.4E-7;0;Navigation
1.87563095;0.0012019;55.0799;255.7571;351.7567;8.1971;0;-4.0E-8;0;Navigation
1.87563092;0.0012016;55.0799;255.7571;351.737;8.2168;0;-4.0E-8;0;Navigation
1.87563092;0.0012016;55.0799;255.7571;351.737;8.2168;0;-4.0E-8;0;Navigation
1.8756307;0.0012003;55.0793;255.7205;351.6315;8.3283;0;4.0E-8;0;Navigation
1.8756307;0.0012003;55.0793;255.7205;351.6315;8.3283;0;4.0E-8;0;Navigation
1.87563044;0.0011998;55.0785;255.6654;351.5917;8.377;0;9.0E-8;0;Navigation
1.87563025;0.0011982;55.0779;255.6287;351.4324;8.5399;0;6.0E-8;0;Navigation
1.87563017;0.001198;55.0776;255.6104;351.3862;8.587;0;2.0E-8;0;Navigation
1.87563011;0.0011979;55.0773;255.592;351.3649;8.6085;0;-3.0E-8;0;Navigation
1.87563007;0.0011971;55.0769;255.5736;351.3956;8.5775;0;-9.0E-8;0;Navigation
1.87563007;0.0011969;55.0763;255.5369;351.3248;8.6452;0;-2.3E-7;0;Navigation
1.87563014;0.0011974;55.0761;255.5186;351.4139;8.5543;0;-3.1E-7;0;Navigation
1.87563014;0.0011974;55.0761;255.5186;351.4139;8.5543;0;-3.1E-7;0;Navigation
1.8756301;0.0011966;55.0755;255.4817;351.3455;8.618;0;-4.4E-7;0;Navigation
1.87563018;0.0011967;55.0752;255.4634;351.3654;8.5961;0;-4.9E-7;0;Navigation
1.87563029;0.0011968;55.0746;255.4266;351.3413;8.6174;0;-5.4E-7;0;Navigation
1.87563039;0.0011969;55.0743;255.4083;351.3373;8.621;0;-5.4E-7;0;Navigation
1.87563049;0.0011964;55.074;255.3899;351.2928;8.6657;0;-5.3E-7;0;Navigation
1.87563049;0.0011964;55.074;255.3899;351.2928;8.6657;0;-5.3E-7;0;Navigation
1.87563075;0.0011963;55.0735;255.3532;351.236;8.7254;0;-4.7E-7;0;Navigation
1.87563075;0.0011963;55.0735;255.3532;351.236;8.7254;0;-4.7E-7;0;Navigation
1.8756309;0.0011955;55.0729;255.3164;351.1056;8.8609;0;-3.8E-7;0;Navigation
1.87563106;0.0011964;55.0724;255.2796;351.2182;8.7553;0;-2.8E-7;0;Navigation
1.87563129;0.0011958;55.0718;255.2429;351.1733;8.8071;0;-2.2E-7;0;Navigation
1.87563136;0.0011955;55.0718;255.2429;351.1209;8.8594;0;-2.2E-7;0;Navigation
1.87563136;0.0011955;55.0718;255.2429;351.1209;8.8594;0;-2.2E-7;0;Navigation
1.87563136;0.0011955;55.0718;255.2429;351.1209;8.8594;0;-2.2E-7;0;Navigation
1.8756317;0.0011948;55.0709;255.1879;351.0064;8.9823;0;-2.1E-7;0;Navigation
1.8756317;0.0011948;55.0709;255.1879;351.0064;8.9823;0;-2.1E-7;0;Navigation
1.87563182;0.0011931;55.0698;255.1145;350.9176;9.0764;0;-3.3E-7;0;Navigation
1.87563182;0.0011931;55.0698;255.1145;350.9176;9.0764;0;-3.3E-7;0;Navigation
1.87563178;0.0011909;55.0693;255.0778;350.7913;9.2027;0;-4.0E-7;0;Navigation
1.87563177;0.0011925;55.0692;255.0778;351.041;8.9536;0;-4.0E-7;0;Navigation
1.87563173;0.0011916;55.0687;255.0411;351.0218;8.972;0;-4.4E-7;0;Navigation
1.87563171;0.0011914;55.0687;255.0411;350.9792;9.0146;0;-4.4E-7;0;Navigation
1.87563167;0.0011912;55.0684;255.0227;350.9496;9.0436;0;-4.5E-7;0;Navigation
1.87563165;0.0011911;55.0681;255.0044;350.9144;9.0782;0;-4.5E-7;0;Navigation
1.87563161;0.0011907;55.0679;254.986;350.8703;9.1218;0;-4.4E-7;0;Navigation
1.87563159;0.0011905;55.0676;254.9676;350.8912;9.1007;0;-4.2E-7;0;Navigation
1.87563159;0.0011905;55.0676;254.9676;350.8912;9.1007;0;-4.2E-7;0;Navigation
1.87563149;0.0011897;55.067;254.9309;350.8333;9.159;0;-3.5E-7;0;Navigation
1.87563139;0.00119;55.0667;254.9125;350.8847;9.1085;0;-3.0E-7;0;Navigation
1.87563127;0.00119;55.0665;254.8942;350.9402;9.0545;0;-2.5E-7;0;Navigation
1.87563124;0.0011896;55.0665;254.8942;351.0053;8.9896;0;-2.5E-7;0;Navigation
1.87563124;0.0011896;55.0665;254.8942;351.0053;8.9896;0;-2.5E-7;0;Navigation
1.87563082;0.0011886;55.0654;254.8207;350.8374;9.167;0;-1.0E-8;0;Navigation
1.87563082;0.0011886;55.0654;254.8207;350.8374;9.167;0;-1.0E-8;0;Navigation
1.87563082;0.0011886;55.0654;254.8207;350.8374;9.167;0;-1.0E-8;0;Navigation
1.87563043;0.0011878;55.0645;254.7656;350.9074;9.1077;0;1.2E-7;0;Navigation
1.87563043;0.0011878;55.0645;254.7656;350.9074;9.1077;0;1.2E-7;0;Navigation
1.87563022;0.0011883;55.0642;254.7472;350.895;9.1235;0;1.5E-7;0;Navigation
1.87563001;0.0011884;55.0634;254.6921;350.9333;9.0932;0;1.5E-7;0;Navigation
1.87562992;0.0011891;55.0633;254.6921;350.9823;9.0443;0;1.5E-7;0;Navigation
1.87562987;0.0011899;55.0628;254.6554;351.0788;8.95;0;8.0E-8;0;Navigation
1.87562978;0.0011907;55.0622;254.6186;351.0965;8.9314;0;-3.0E-8;0;Navigation
1.87562972;0.0011913;55.062;254.6003;351.1023;8.9242;0;-1.0E-7;0;Navigation
